OBJECT_NAME,OBJECT_ID,EPOCH,MEAN_MOTION,ECCENTRICITY,INCLINATION,RA_OF_ASC_NODE,ARG_OF_PERICENTER,MEAN_ANOMALY,EPHEMERIS_TYPE,CLASSIFICATION_TYPE,NORAD_CAT_ID,ELEMENT_SET_NO,REV_AT_EPOCH,BSTAR,MEAN_MOTION_DOT,MEAN_MOTION_DDOT
TIANMU-1 20,2023-208B,2026-06-09T22:44:14.138304,15.32656274,.00066594,97.4434,277.8392,2.1194,358.0075,0,U,58661,999,13631,.24685528E-3,.771E-4,0
TIANMU-1 21,2023-208C,2026-06-09T22:43:04.670112,15.34949089,.00065188,97.4492,280.4879,353.8648,6.2514,0,U,58662,999,13645,.27430172E-3,.9224E-4,0
TIANMU-1 22,2023-208D,2026-06-09T22:46:03.926784,15.30956916,.00039052,97.4488,277.1548,29.2919,330.8541,0,U,58663,999,13622,.24082243E-3,.7127E-4,0
TIANMU-1 15,2024-004A,2026-06-09T22:56:22.429824,15.26949461,.00074267,97.4673,347.1456,26.8809,333.2813,0,U,58700,999,13467,.20014103E-3,.5224E-4,0
TIANMU-1 16,2024-004B,2026-06-09T22:38:59.899776,15.26674617,.00065512,97.4619,346.3786,31.8086,328.3547,0,U,58701,999,13467,.20286682E-3,.5251E-4,0
TIANMU-1 17,2024-004C,2026-06-09T22:18:02.780640,15.26674068,.0006227,97.4646,346.8462,37.6550,322.5124,0,U,58702,999,13466,.20392196E-3,.5279E-4,0
TIANMU-1 18,2024-004D,2026-06-09T23:20:10.646880,15.26933138,.00047073,97.4665,347.1403,37.0976,323.0587,0,U,58703,999,13467,.19314449E-3,.5034E-4,0
INSAT-3DS,2024-033A,2026-06-09T17:08:55.889664,1.00272756,.0001191,0.0071,29.0411,44.4870,163.8785,0,U,58990,999,4699,0,-.139E-5,0
METEOR-M2 4,2024-039A,2026-06-09T22:31:00.589728,14.22428829,.00068541,98.7008,120.3274,181.6690,178.4466,0,U,59051,999,11823,.19478211E-4,0,0
GOES 19,2024-119A,2026-06-09T19:49:29.887968,1.00271567,.00004671,0.0350,149.5490,8.0992,322.7393,0,U,60133,999,689,0,-.231E-5,0
MTG-S1,2025-143A,2026-06-09T16:44:34.522656,1.00271601,.00010155,0.6101,337.2016,24.9050,143.6297,0,U,64723,999,334,0,-.15E-6,0
METOP-SGA1,2025-172A,2026-06-09T16:15:51.136416,14.21508595,.00009327,98.6645,220.5423,88.5931,271.5354,0,U,65159,999,4272,.35622696E-4,.35E-6,0
FENGYUN 3H,2025-219A,2026-06-09T17:06:05.776704,14.19919207,.00016315,98.6766,101.6271,82.5336,277.6026,0,U,65815,999,3632,.43436528E-4,.49E-6,0
