TIANMU-1 20             
1 58661U 23208B   26160.94738586  .00007710  00000+0  24686-3 0  9999
2 58661  97.4434 277.8392 0006659   2.1194 358.0075 15.32656274136313
TIANMU-1 21             
1 58662U 23208C   26160.94658183  .00009224  00000+0  27430-3 0  9996
2 58662  97.4492 280.4879 0006518 353.8648   6.2514 15.34949089136458
TIANMU-1 22             
1 58663U 23208D   26160.94865656  .00007127  00000+0  24082-3 0  9992
2 58663  97.4488 277.1548 0003905  29.2919 330.8541 15.30956916136226
TIANMU-1 15             
1 58700U 24004A   26160.95581516  .00005224  00000+0  20014-3 0  9997
2 58700  97.4673 347.1456 0007426  26.8809 333.2813 15.26949461134671
TIANMU-1 16             
1 58701U 24004B   26160.94374884  .00005251  00000+0  20287-3 0  9997
2 58701  97.4619 346.3786 0006551  31.8086 328.3547 15.26674617134677
TIANMU-1 17             
1 58702U 24004C   26160.92919885  .00005279  00000+0  20392-3 0  9999
2 58702  97.4646 346.8462 0006227  37.6550 322.5124 15.26674068134660
TIANMU-1 18             
1 58703U 24004D   26160.97234545  .00005034  00000+0  19314-3 0  9999
2 58703  97.4665 347.1403 0004707  37.0976 323.0587 15.26933138134674
INSAT-3DS               
1 58990U 24033A   26160.71453576 -.00000139  00000+0  00000+0 0  9998
2 58990   0.0071  29.0411 0001191  44.4870 163.8785  1.00272756 46993
METEOR-M2 4             
1 59051U 24039A   26160.93820127  .00000000  00000+0  19478-4 0  9997
2 59051  98.7008 120.3274 0006854 181.6690 178.4466 14.22428829118230
GOES 19                 
1 60133U 24119A   26160.82604037 -.00000231  00000+0  00000+0 0  9990
2 60133   0.0350 149.5490 0000467   8.0992 322.7393  1.00271567  6891
MTG-S1                  
1 64723U 25143A   26160.69762179 -.00000015  00000+0  00000+0 0  9994
2 64723   0.6101 337.2016 0001015  24.9050 143.6297  1.00271601  3341
METOP-SGA1              
1 65159U 25172A   26160.67767519  .00000035  00000+0  35623-4 0  9996
2 65159  98.6645 220.5423 0000932  88.5931 271.5354 14.21508595 42724
FENGYUN 3H              
1 65815U 25219A   26160.71256686  .00000049  00000+0  43437-4 0  9997
2 65815  98.6766 101.6271 0001631  82.5336 277.6026 14.19919207 36322
